ORBCOMM FM33            
1 25983U 99065D   24187.74624553  .00001294  00000+0  47151-3 0  9990
2 25983  45.0276 203.5685 0006269 122.0347 238.1111 14.37903215286169
ORBCOMM FM36            
1 25984U 99065E   24187.72894474  .00001610  00000+0  59934-3 0  9994
2 25984  45.0406 290.1082 0002994 319.2696  40.7928 14.35829768284581
ORBCOMM FM35            
1 25985U 99065F   24187.78874592  .00001262  00000+0  48510-3 0  9991
2 25985  45.0408 292.6709 0002439 139.1762 220.9269 14.35342362284988
ORBCOMM FM34            
1 25986U 99065G   24187.62110999  .00001277  00000+0  49041-3 0  9995
2 25986  45.0402 294.0071 0001735  37.8507 322.2462 14.35318170285072
ORBCOMM FM38            
1 33060U 08031A   24187.95847486  .00002680  00000+0  39687-3 0  9998
2 33060  48.4393 161.2834 0005878 352.8140   7.2689 14.77904439863479
ORBCOMM FM41            
1 33061U 08031B   24187.95241531  .00002532  00000+0  37892-3 0  9990
2 33061  48.4426 168.0672 0005157 339.0021  49.8592 14.77626642862973
ORBCOMM FM29            
1 33062U 08031C   24187.69921966  .00002716  00000+0  40490-3 0  9991
2 33062  48.4377 177.3027 0007060 336.5067 194.1661 14.77572414862847
ORBCOMM FM39            
1 33063U 08031D   24187.87460084  .00001944  00000+0  30524-3 0  9990
2 33063  48.4386 197.4259 0008101 313.2752  46.7486 14.76527127862564
